[{"OBJECT_NAME":"IRIDIUM 141","OBJECT_ID":"2017-083H","EPOCH":"2026-03-09T20:26:47.196096","MEAN_MOTION":14.34219969,"ECCENTRICITY":0.00021763,"INCLINATION":86.4016,"RA_OF_ASC_NODE":3.5025,"ARG_OF_PERICENTER":80.8622,"MEAN_ANOMALY":279.282,"EPHEMERIS_TYPE":0,"CLASSIFICATION_TYPE":"U","NORAD_CAT_ID":43077,"ELEMENT_SET_NO":999,"REV_AT_EPOCH":42993,"BSTAR":0.00010189032,"MEAN_MOTION_DOT":3.05e-6,"MEAN_MOTION_DDOT":0},{"OBJECT_NAME":"CZ-6A DEB","OBJECT_ID":"2024-140LH","EPOCH":"2026-03-09T14:37:46.557696","MEAN_MOTION":14.54856627,"ECCENTRICITY":0.0113911,"INCLINATION":89.0285,"RA_OF_ASC_NODE":284.57,"ARG_OF_PERICENTER":248.2945,"MEAN_ANOMALY":110.6107,"EPHEMERIS_TYPE":0,"CLASSIFICATION_TYPE":"U","NORAD_CAT_ID":60902,"ELEMENT_SET_NO":999,"REV_AT_EPOCH":8254,"BSTAR":0.00035916,"MEAN_MOTION_DOT":1.698e-5,"MEAN_MOTION_DDOT":0}]
